<current_observation>
<metar>KCVX 191555Z AUTO 34004KT 10SM CLR 16/05 A3024 RMK AO2 T01600045</metar>
</current_observation>