<current_observation>
<metar>KCVX 071554Z AUTO 11007KT 10SM CLR M03/M07 A3072 RMK AO2 T10321071</metar>
</current_observation>