<current_observation>
<metar>KTYQ 050255Z AUTO 35008KT 10SM CLR 19/10 A2987 RMK AO2 T01910100</metar>
</current_observation>