<current_observation>
<metar>KTYQ 191555Z AUTO 10007KT 10SM CLR 18/03 A3022 RMK AO2 T01790029</metar>
</current_observation>