<current_observation>
<metar>KTYQ 301955Z AUTO 22017G23KT 10SM SCT037 BKN060 OVC065 18/12 A2986 RMK AO2 T01750115</metar>
</current_observation>